NORAD_CAT_ID,OBJECT_NAME,OBJECT_TYPE,EPOCH,MEAN_MOTION,ECCENTRICITY,INCLINATION,RA_OF_ASC_NODE,ARG_OF_PERICENTER,MEAN_ANOMALY,BSTAR,MEAN_MOTION_DOT,MEAN_MOTION_DDOT,TLE_LINE0,TLE_LINE1,TLE_LINE2,SEMIMAJOR_AXIS,PERIOD,APOGEE,PERIGEE,DECAYED
53139.0,STARLINK-4185,PAYLOAD,2023-01-17 10:45:20,15.08821772,0.0001139999999999,53.2159,284.2927,55.2806,304.8293,0.0010472,0.00016409,0.0,0 STARLINK-4185,1 53139U 22083H   23017.44815284  .00016409  00000-0  10472-2 0  9991,2 53139  53.2159 284.2927 0001140  55.2806 304.8293 15.08821772 28655,6917.936,95.439,540.59,539.012,0.0
53139.0,STARLINK-4185,PAYLOAD,2023-01-17 21:53:02,15.08844015,0.0001013,53.2144,282.2137,51.3871,308.7212,0.0014277,0.00022509,0.0,0 STARLINK-4185,1 53139U 22083H   23017.91183478  .00022509  00000-0  14277-2 0  9991,2 53139  53.2144 282.2137 0001013  51.3871 308.7212 15.08844015 28095,6917.868,95.437,540.434,539.0319999999999,0.0
53139.0,STARLINK-4185,PAYLOAD,2023-01-18 04:14:34,15.08867008,0.0001188,53.2157,281.0211,53.892,306.2182,0.0021634,0.00034336,0.0,0 STARLINK-4185,1 53139U 22083H   23018.17679170  .00034336  00000-0  21634-2 0  9995,2 53139  53.2157 281.0211 0001188  53.8920 306.2182 15.08867008 28764,6917.798000000001,95.436,540.485,538.841,0.0
53139.0,STARLINK-4185,PAYLOAD,2023-01-18 21:43:49,15.08873349,0.0002171999999999,53.2156,277.7484,62.8791,297.2423,0.0019695999999999,0.00031227,0.0,0 STARLINK-4185,1 53139U 22083H   23018.90543072  .00031227  00000-0  19696-2 0  9998,2 53139  53.2156 277.7484 0002172  62.8791 297.2423 15.08873349 28871,6917.778,95.435,541.146,538.141,0.0
53139.0,STARLINK-4185,PAYLOAD,2023-01-19 02:29:58,15.08880644,0.0001583,53.2154,276.8593,56.0633,304.051,0.001768,0.00027993,0.0,0 STARLINK-4185,1 53139U 22083H   23019.10414509  .00027993  00000-0  17680-2 0  9999,2 53139  53.2154 276.8593 0001583  56.0633 304.0510 15.08880644 28279,6917.755999999999,95.435,540.716,538.526,0.0
53139.0,STARLINK-4185,PAYLOAD,2023-01-20 03:56:09,15.08840553,0.0001276,53.2153,272.1003,83.8606,276.2531,0.00095987,0.00015022,0.0,0 STARLINK-4185,1 53139U 22083H   23020.16399430  .00015022  00000-0  95987-3 0  9999,2 53139  53.2153 272.1003 0001276  83.8606 276.2531 15.08840553 29066,6917.879,95.438,540.626,538.861,0.0
53139.0,STARLINK-4185,PAYLOAD,2023-01-20 23:00:46,15.08854995,0.0001493,53.2143,268.5343,82.8366,277.2796,0.0006917999999999,0.00010744,0.0,0 STARLINK-4185,1 53139U 22083H   23020.95887337  .00010744  00000-0  69180-3 0  9996,2 53139  53.2143 268.5343 0001493  82.8366 277.2796 15.08854995 29186,6917.835,95.437,540.732,538.6669999999999,0.0
53139.0,STARLINK-4185,PAYLOAD,2023-01-21 16:30:01,15.08850532,0.000157,53.2135,265.2594,89.6738,270.4434,0.00044689,6.833e-05,0.0,0 STARLINK-4185,1 53139U 22083H   23021.68751287  .00006833  00000-0  44689-3 0  9992,2 53139  53.2135 265.2594 0001570  89.6738 270.4434 15.08850532 29292,6917.848000000001,95.437,540.799,538.627,0.0
53139.0,STARLINK-4185,PAYLOAD,2023-01-22 08:23:52,15.08852985,0.0001291,53.2147,262.2896,72.8908,287.2225,0.00037709,5.721e-05,0.0,0 STARLINK-4185,1 53139U 22083H   23022.34990951  .00005721  00000-0  37709-3 0  9999,2 53139  53.2147 262.2896 0001291  72.8908 287.2225 15.08852985 29399,6917.840999999999,95.437,540.599,538.813,0.0
53139.0,STARLINK-4185,PAYLOAD,2023-01-22 16:20:48,15.08830335,0.0001274,53.2148,260.8006,92.1594,267.9544,-0.00021078,-3.64e-05,0.0,0 STARLINK-4185,1 53139U 22083H   23022.68111240 -.00003640  00000-0 -21078-3 0  9994,2 53139  53.2148 260.8006 0001274  92.1594 267.9544 15.08830335 29444,6917.91,95.438,540.656,538.894,0.0
53139.0,STARLINK-4185,PAYLOAD,2023-01-23 08:14:39,15.08838937,0.0001211999999999,53.2155,257.8298,89.5474,270.5657,0.00020982,3.053e-05,0.0,0 STARLINK-4185,1 53139U 22083H   23023.34351566  .00003053  00000-0  20982-3 0  9994,2 53139  53.2155 257.8298 0001212  89.5474 270.5657 15.08838937 29542,6917.884,95.438,540.587,538.91,0.0
53139.0,STARLINK-4185,PAYLOAD,2023-01-24 19:13:08,15.08842777,0.0001137,53.2139,251.2854,73.4262,286.6855,0.00010925,1.451e-05,0.0,0 STARLINK-4185,1 53139U 22083H   23024.80079539  .00001451  00000-0  10925-3 0  9999,2 53139  53.2139 251.2854 0001137  73.4262 286.6855 15.08842777 29762,6917.871999999999,95.437,540.523,538.95,0.0
53139.0,STARLINK-4185,PAYLOAD,2023-01-25 07:56:13,15.08839272,0.0001149999999999,53.2136,248.9065,84.4098,275.7025,0.00013644,1.884e-05,0.0,0 STARLINK-4185,1 53139U 22083H   23025.33071703  .00001884  00000-0  13644-3 0  9994,2 53139  53.2136 248.9065 0001150  84.4098 275.7025 15.08839272 29214,6917.883000000001,95.438,540.543,538.952,0.0
53139.0,STARLINK-4185,PAYLOAD,2023-01-25 22:14:42,15.08841954,0.0001214,53.2142,246.2292,85.6323,274.4808,0.00013122,1.801e-05,0.0,0 STARLINK-4185,1 53139U 22083H   23025.92687700  .00001801  00000-0  13122-3 0  9999,2 53139  53.2142 246.2292 0001214  85.6323 274.4808 15.08841954 29933,6917.874,95.437,540.5790000000001,538.9,0.0
53139.0,STARLINK-4185,PAYLOAD,2023-01-26 01:25:28,15.08842639,0.0001216,53.2141,245.6344,85.4976,274.6155,0.00013464,1.856e-05,0.0,0 STARLINK-4185,1 53139U 22083H   23026.05935668  .00001856  00000-0  13464-3 0  9992,2 53139  53.2141 245.6344 0001216  85.4976 274.6155 15.08842639 29328,6917.871999999999,95.437,540.5790000000001,538.896,0.0
53139.0,STARLINK-4185,PAYLOAD,2023-01-27 09:13:11,15.08841706,0.0001331999999999,53.2134,239.6873,79.3561,280.7581,7.3145e-05,8.76e-06,0.0,0 STARLINK-4185,1 53139U 22083H   23027.38415765  .00000876  00000-0  73145-4 0  9994,2 53139  53.2134 239.6873 0001332  79.3561 280.7581 15.08841706 30159,6917.875,95.437,540.6619999999999,538.819,0.0
53139.0,STARLINK-4185,PAYLOAD,2023-01-27 20:20:55,15.08818199,0.0001017,53.2157,237.6074,59.3331,300.7761,-9.719e-05,-1.833e-05,0.0,0 STARLINK-4185,1 53139U 22083H   23027.84785911 -.00001833  00000-0 -97190-4 0  9990,2 53139  53.2157 237.6074 0001017  59.3331 300.7761 15.08818199 30229,6917.946999999999,95.439,540.516,539.1080000000001,0.0
53139.0,STARLINK-4185,PAYLOAD,2023-01-28 13:50:09,15.08829184,0.0001274,53.2154,234.3342,73.167,286.9461,3.4448e-05,2.6e-06,0.0,0 STARLINK-4185,1 53139U 22083H   23028.57649675  .00000260  00000-0  34448-4 0  9995,2 53139  53.2154 234.3342 0001274  73.1670 286.9461 15.08829184 30333,6917.913,95.438,540.66,538.897,0.0
53139.0,STARLINK-4185,PAYLOAD,2023-01-28 20:11:41,15.08835445,0.0001318,53.2145,233.1449,70.5209,289.5925,0.00012858,1.759e-05,0.0,0 STARLINK-4185,1 53139U 22083H   23028.84145451  .00001759  00000-0  12858-3 0  9992,2 53139  53.2145 233.1449 0001318  70.5209 289.5925 15.08835445 29740,6917.894,95.438,540.671,538.848,0.0
53139.0,STARLINK-4185,PAYLOAD,2023-01-29 21:37:52,15.08853526,0.0001436,53.2146,228.3861,66.2314,293.8828,0.00067408,0.0001046,0.0,0 STARLINK-4185,1 53139U 22083H   23029.90129698  .00010460  00000-0  67408-3 0  9995,2 53139  53.2146 228.3861 0001436  66.2314 293.8828 15.08853526 30534,6917.839,95.437,540.697,538.711,0.0
53139.0,STARLINK-4185,PAYLOAD,2023-01-30 13:31:42,15.08857669,0.0001478,53.2145,225.4125,67.1399,292.9749,0.0004066,6.192e-05,0.0,0 STARLINK-4185,1 53139U 22083H   23030.56369068  .00006192  00000-0  40660-3 0  9994,2 53139  53.2145 225.4125 0001478  67.1399 292.9749 15.08857669 30009,6917.826,95.436,540.714,538.669,0.0
53139.0,STARLINK-4185,PAYLOAD,2023-01-30 21:28:38,15.08862053,0.0001499,53.2146,223.9259,68.5405,291.5747,0.00039753,6.048e-05,0.0,0 STARLINK-4185,1 53139U 22083H   23030.89488563  .00006048  00000-0  39753-3 0  9993,2 53139  53.2146 223.9259 0001499  68.5405 291.5747 15.08862053 30058,6917.813,95.436,540.715,538.641,0.0
53139.0,STARLINK-4185,PAYLOAD,2023-01-30 23:04:01,15.08863063,0.0001501,53.2145,223.6285,68.5385,291.5767,0.00039713,6.042e-05,0.0,0 STARLINK-4185,1 53139U 22083H   23030.96112446  .00006042  00000-0  39713-3 0  9995,2 53139  53.2145 223.6285 0001501  68.5385 291.5767 15.08863063 30698,6917.81,95.436,540.713,538.637,0.0
53139.0,STARLINK-4185,PAYLOAD,2023-01-31 13:22:29,15.08847527,0.0001533,53.2136,220.952,70.2948,289.8209,-1.9208e-05,-5.94e-06,0.0,0 STARLINK-4185,1 53139U 22083H   23031.55728454 -.00000594  00000-0 -19208-4 0  9999,2 53139  53.2136 220.9520 0001533  70.2948 289.8209 15.08847527 30788,6917.857,95.437,540.783,538.662,0.0
53139.0,STARLINK-4185,PAYLOAD,2023-01-31 19:44:01,15.08850104,0.0001534,53.2137,219.7625,70.676,289.4397,6.1212e-05,6.87e-06,0.0,0 STARLINK-4185,1 53139U 22083H   23031.82224272  .00000687  00000-0  61212-4 0  9991,2 53139  53.2137 219.7625 0001534  70.6760 289.4397 15.08850104 30192,6917.85,95.437,540.776,538.653,0.0
53139.0,STARLINK-4185,PAYLOAD,2023-02-01 05:16:20,15.08847209,0.0001482,53.2137,217.9783,74.5913,285.5243,-7.8894e-07,-3.01e-06,0.0,0 STARLINK-4185,1 53139U 22083H   23032.21968167 -.00000301  00000-0 -78894-6 0  9994,2 53139  53.2137 217.9783 0001482  74.5913 285.5243 15.08847209 30258,6917.858,95.437,540.749,538.698,0.0
53139.0,STARLINK-4185,PAYLOAD,2023-02-02 13:04:03,15.08840491,0.0001425,53.2146,212.0305,79.4401,280.6752,4.7207e-05,4.63e-06,0.0,0 STARLINK-4185,1 53139U 22083H   23033.54448447  .00000463  00000-0  47207-4 0  9994,2 53139  53.2146 212.0305 0001425  79.4401 280.6752 15.08840491 30456,6917.879,95.438,540.73,538.758,0.0
53139.0,STARLINK-4185,PAYLOAD,2023-02-02 21:00:58,15.08844338,0.0001436,53.2145,210.5434,79.4366,280.6788,5.8274e-05,6.4e-06,0.0,0 STARLINK-4185,1 53139U 22083H   23033.87568097  .00000640  00000-0  58274-4 0  9997,2 53139  53.2145 210.5434 0001436  79.4366 280.6788 15.08844338 31132,6917.867,95.437,540.726,538.739,0.0
53139.0,STARLINK-4185,PAYLOAD,2023-02-03 12:54:50,15.08840443,0.0001442,53.2146,207.5698,81.0855,279.03,5.5784e-05,6e-06,0.0,0 STARLINK-4185,1 53139U 22083H   23034.53808294  .00000600  00000-0  55784-4 0  9996,2 53139  53.2146 207.5698 0001442  81.0855 279.0300 15.08840443 30606,6917.879,95.438,540.742,538.746,0.0
